#dP2021  7 25  0  0  0.00000000      96 __u+U ITR00 FIT  IAC
## 2168      0.00000000   900.00000000 59420 0.0000000000000
+  117   C06C07C08C09C10C11C12C13C14C16C19C20C21C22C23C24C25
+        C26C27C28C29C30C32C33C34C35C36C37C38C39C40C41C42C43
+        C44C45C46E01E02E03E04E05E07E08E09E11E12E13E14E15E18
+        E19E21E24E25E26E27E30E31E33E36G01G02G03G04G05G06G07
+        G08G09G10G11G12G13G14G15G16G17G18G19G20G21G22G23G24
+        G25G26G27G28G29G30G31G32J01J02J03R01R02R03R04R05R07
+        R08R09R11R12R13R14R15R16R17R18R19R20R21R22R24  0  0
++         8  8  8  8  7  7  5  7  6  7  9  6  7  7  6  7  7
++         9  6  7  8  6  6  7  7  7  6  7  8  8  9  7  6  7
++         8  7  7  6  6  7  7  7  6  6  6  5  7  7  8  6  6
++         7  6  7  6  6  6  7  7  6  6  5  5  6  6  6  6  6
++         6  7  7  5  5  6  6  7  6  5  5  7  7  5  6  6  7
++         6  6  7  6  6  5  7  6  9  7  6  8  8  6  7  8  7
++         6  8  6  7  6  7  6  6  6  7  6  6  7  7  6  0  0
%c M  cc GPS ccc cccc cccc cccc cccc ccccc ccccc ccccc ccccc
%c cc cc ccc ccc cccc cccc cccc cccc ccccc ccccc ccccc ccccc
%f  0.0000000  0.000000000  0.00000000000  0.000000000000000
%f  0.0000000  0.000000000  0.00000000000  0.000000000000000
%i    0    0    0    0      0      0      0      0         0
%i    0    0    0    0      0      0      0      0         0
/* INFORMATION & ANALYSIS CENTER (IAC)      ULTRA-RAPID DATA
/* S/V CLOCKS ARE ALIGNED TO GNSS TIME                      
/* G:C1WC2W R:C1PC2P E:C1XC5X C:C2IC6I J:C1CC2S             
/* PCV:IGS14_2163 OL/AL:FES2004  NONE     YN ORB:CoN CLK:CoN
*  2021 07 25  8 15  0.00000000
PC06 -17859.098100  38438.645019   2698.406522    668.829504
PC07  -8109.388498  27529.886510 -30437.635594     84.035644
PC08 -21531.542981  20965.294937  29505.297841   -909.492735
PC09  -8880.629905  39613.987501 -11901.954652    347.762646
PC10   4305.365528  33500.429417 -24705.091252    -15.225320
PC11   -310.494317  23045.901484  15754.208863    477.907853
PC12 -13037.948165  24641.640919   -837.528223    801.226005
PC13  -6885.905690  23501.161974  34372.041589    349.246164
PC14  10343.909298  24716.692746   7710.806745    776.408645
PC16 -15933.299956  39169.285363    504.129619   -898.277046
PC19 -16709.733783 -22292.729312   1823.569096    921.846802
PC20  -4003.878685 -23562.537722 -14419.563016   -835.770985
PC21 -11856.015155  10698.061585  22899.515471   -936.843204
PC22 -20145.224074  -8124.983747  17538.017861   -948.665696
PC23  27504.934883   1462.769042  -4460.177917   -966.203447
PC24  -5121.799954  16215.341014 -22121.582388   -956.416889
PC25  16992.785436  11895.424369 -18677.004446   -880.610446
PC26 -21902.133183  11305.432845 -13058.320904    873.900545
PC27  17377.051210 -19580.009231   9625.180667    569.971291
PC28  17608.349107  -1774.828403  21576.704126    -46.524422
PC29  -8147.022193 -16752.639389 -20789.563446    424.182846
PC30   6398.451000 -26135.419177  -7374.854271    475.212525
PC32  11770.631608 -10794.381271 -22871.131601   -926.146297
PC33  16759.936627  22233.153247  -1704.882277   -947.065959
PC34  -5903.980530  26063.720611   8055.593231   -620.294678
PC35 -17502.360996   1952.631433 -21664.262171   -171.108199
PC36 -16324.600505 -12476.396307  18916.519697   -735.999910
PC37  22826.864290 -10332.147110  12325.180940   -863.161117
PC38 -19549.424872  23448.766720  29017.445111    164.029021
PC39 -12870.703279  40239.337224     41.298450     32.593929
PC40    669.905643  30777.754915 -28709.765956    183.845772
PC41  20221.285457   8379.271181 -17263.409876   -966.098940
PC42   3242.830853  23280.331667  15068.734120   -923.385033
PC43   7749.694358  17310.505603  20464.630007   -837.125454
PC44 -16846.778942  19996.437287  -9805.198628    306.926353
PC45 -27525.250531  -1311.425488   4360.818161    502.676669
PC46   3891.546247 -16175.556204  22420.998090    163.115399
PE01  11576.599727 -12665.841277  24125.765537  -1157.405954
PE02 -11427.537852  12744.360236 -24142.601541    235.294378
PE03  -8315.765305  23870.358525  15391.417309   -456.406230
PE04  -4680.355623 -29157.771049   2066.831020   -820.674368
PE05 -16629.986380   4481.862220  24078.711083   -262.501813
PE07  15153.801620  17286.016189 -18632.139593   -565.778403
PE08   5020.567393  29064.257787  -2396.568651   5964.862828
PE09 -15189.043940 -17073.174002  18830.884656   5588.817756
PE11 -17224.230712  -6148.134590 -23292.296961   5671.888129
PE12   1826.809748 -19472.882609 -22221.671101   5093.908250
PE13  16844.570320   6409.658472  23476.454688    419.453779
PE14  11377.570916 -21918.026329  10258.580471  -1512.210199
PE15  -1794.016542  19416.714138  22267.422047    801.628797
PE18 -18654.317808  12628.242698 -20138.847091  -1657.715548
PE19   9577.400985 -22183.380043 -17090.570912    335.465852
PE21  25774.079127    636.960047  14544.506858   -678.182540
PE24 -25202.096184 -14769.546975   4722.555062  -1026.509438
PE25 -25866.935036   -816.362687 -14356.953282   -541.087789
PE26  25658.166630 -10856.823184  10005.249131   1539.392606
PE27  25699.987942  14175.841012  -3842.452739    -83.196834
PE30   9307.804121  19320.090895 -20408.028440   2756.224840
PE31 -10503.504374 -19290.599697  19856.681472   -483.641582
PE33  19328.092347 -20959.401079  -7954.885511   -467.202676
PE36 -25523.398008  10329.357040 -10873.339284   -239.158776
PG01   4204.204011 -16882.559130 -20234.435678    617.803126
PG02 -21950.434183  14894.914193   2540.181964   -621.935434
PG03  -4646.002366 -18501.005871 -18621.010947   -231.453943
PG04    463.007009 -26331.956662   3184.735071   -202.986172
PG05  -7667.020209  13143.754758  21605.384464    -48.978113
PG06 -24511.191966   5544.327461  -8630.166167     45.261404
PG07 -11789.370519 -11279.795744  21396.166352    210.292428
PG08   6523.052695 -24401.657580   7673.444490    -30.082893
PG09  -8254.210030 -21495.547256  13158.175566   -356.718621
PG10  23593.617298  11051.712289  -5753.276749   -168.945450
PG11 -23873.533154  11467.026081   1960.623628     23.105905
PG12   2965.163488  18691.282865 -18941.701560    -73.437840
PG13 -12987.807528  18994.959320  13002.725553    162.264746
PG14 -23123.564165 -11440.689534  -6418.510363     39.264990
PG15  -3801.526220  25112.342058   6755.344247   -133.117136
PG16  14332.728440  -6868.428873  21112.430937   -362.710812
PG17 -12965.922108  -8926.012464 -20964.689223    479.069762
PG18  13778.092028   9314.899857  20712.186543    338.431481
PG19 -15173.389848    983.388700 -22044.951682     30.828600
PG20 -18316.919269   5965.948117  18141.809609    520.005468
PG21  11838.953849 -18372.428467 -14020.770234    133.331408
PG22   2933.639250 -15901.290910 -20917.403472   -554.976807
PG23  19836.591483  16909.623861   5246.978308     79.893358
PG24  -8009.805385  18996.791159 -16777.570482    186.624911
PG25  14214.423618  19425.843641 -11780.784498    179.538583
PG26  21962.251403    522.295349  15059.137387    114.713899
PG27  12027.258202 -17069.818013  16012.966671   -168.184760
PG28 -22170.725277  -8029.414466 -11486.415013    531.834433
PG29   4951.212283  22987.255541  12240.130438   -385.696340
PG30 -21692.168990  -2468.435180  15355.383822   -454.725630
PG31  25188.846725  -6314.179187  -6730.895740   -130.558293
PG32  14748.665191   5203.370521 -21370.763555     12.110524
PJ01 -25480.221185  23793.642976  28714.086409   -423.416791
PJ02 -29313.901188  14427.021552 -22139.735837     -1.023299
PJ03 -24419.371126  33103.706544  -4353.640414     -0.336799
PR01  13229.506851   4133.634118 -21409.068791     82.803646
PR02   3310.609154 -15854.456357 -19643.236037    487.315194
PR03  -7421.825166 -23732.487812  -5524.735161     40.126988
PR04 -13692.865470 -18198.371323  11510.778925     97.334723
PR05 -12372.687576  -2569.239170  22165.623048     75.956985
PR07   7718.435297  23829.949089   4978.875652    -41.918502
PR08  13750.636757  18178.815992 -11417.318151    -60.094685
PR09 -13459.474900   8526.795393 -19923.706095      4.671568
PR11  21119.782837   7762.829980 -11984.913285     45.027834
PR12  24777.367500   -211.046251   6122.287180    248.137835
PR13  14089.218400  -8051.083545  19669.347083    -58.215092
PR14  -5717.509482 -11374.770361  22124.578257     66.875867
PR15 -21355.122289  -7944.065730  11499.378278    102.487363
PR16 -24373.422538   1410.943104  -7183.021385    -18.449624
PR17   5151.242680 -19112.126982 -16114.647479    444.030985
PR18  -7467.685494  -7416.029515 -23226.781783     84.621794
PR19 -16062.458230   6904.252034 -18577.221790   -152.845288
PR20 -16222.492815  19693.761697   -810.355845    -53.034224
PR21  -4293.496373  18448.972613  17059.464010   -226.467009
PR22   8001.452249   6640.080095  23271.762665   -124.423242
PR24  15631.301556 -20170.711287     91.250423     51.828399
EOF
